[{"OBJECT_NAME":"STARLINK-4514","OBJECT_ID":"2022-101AA","EPOCH":"2026-03-09T06:48:28.942848","MEAN_MOTION":15.08835407,"ECCENTRICITY":0.00014176,"INCLINATION":53.2183,"RA_OF_ASC_NODE":65.9443,"ARG_OF_PERICENTER":98.3097,"MEAN_ANOMALY":261.8056,"EPHEMERIS_TYPE":0,"CLASSIFICATION_TYPE":"U","NORAD_CAT_ID":53551,"ELEMENT_SET_NO":999,"REV_AT_EPOCH":19690,"BSTAR":-3.1370567e-5,"MEAN_MOTION_DOT":-7.87e-6,"MEAN_MOTION_DDOT":0},{"OBJECT_NAME":"FENGYUN 1C DEB","OBJECT_ID":"1999-025BNW","EPOCH":"2026-03-06T10:01:07.743936","MEAN_MOTION":15.11996262,"ECCENTRICITY":0.00143439,"INCLINATION":98.7438,"RA_OF_ASC_NODE":239.2093,"ARG_OF_PERICENTER":346.0612,"MEAN_ANOMALY":44.2284,"EPHEMERIS_TYPE":0,"CLASSIFICATION_TYPE":"U","NORAD_CAT_ID":31288,"ELEMENT_SET_NO":999,"REV_AT_EPOCH":98814,"BSTAR":0.0072973407,"MEAN_MOTION_DOT":0.00127645,"MEAN_MOTION_DDOT":0}]
